CCSDS_OMM_VERS = 2.0
CREATION_DATE  = 
ORIGINATOR     = 

OBJECT_NAME    = SL-3 R/B
OBJECT_ID      = 1982-079B
CENTER_NAME    = EARTH
REF_FRAME      = TEME
TIME_SYSTEM    = UTC
MEAN_ELEMENT_THEORY = SGP/SGP4

EPOCH          = 2026-02-20T05:01:32.617056
MEAN_MOTION    = 15.24510578
ECCENTRICITY   = .00243404
INCLINATION    = 81.1454
RA_OF_ASC_NODE = 213.7119
ARG_OF_PERICENTER = 224.2054
MEAN_ANOMALY   = 135.7235

EPHEMERIS_TYPE = 0
CLASSIFICATION_TYPE = U
NORAD_CAT_ID   = 13403
ELEMENT_SET_NO = 999
REV_AT_EPOCH   = 37503
BSTAR          = .21722886E-3
MEAN_MOTION_DOT = .5411E-4
MEAN_MOTION_DDOT = 0

CCSDS_OMM_VERS = 2.0
CREATION_DATE  = 
ORIGINATOR     = 

OBJECT_NAME    = SL-14 R/B
OBJECT_ID      = 1982-092B
CENTER_NAME    = EARTH
REF_FRAME      = TEME
TIME_SYSTEM    = UTC
MEAN_ELEMENT_THEORY = SGP/SGP4

EPOCH          = 2026-02-19T19:37:28.952544
MEAN_MOTION    = 14.86646260
ECCENTRICITY   = .00203614
INCLINATION    = 82.5711
RA_OF_ASC_NODE = 158.1111
ARG_OF_PERICENTER = 4.9673
MEAN_ANOMALY   = 112.1018

EPHEMERIS_TYPE = 0
CLASSIFICATION_TYPE = U
NORAD_CAT_ID   = 13553
ELEMENT_SET_NO = 999
REV_AT_EPOCH   = 32627
BSTAR          = .52624193E-4
MEAN_MOTION_DOT = .493E-5
MEAN_MOTION_DDOT = 0

CCSDS_OMM_VERS = 2.0
CREATION_DATE  = 
ORIGINATOR     = 

OBJECT_NAME    = SL-3 R/B
OBJECT_ID      = 1983-010B
CENTER_NAME    = EARTH
REF_FRAME      = TEME
TIME_SYSTEM    = UTC
MEAN_ELEMENT_THEORY = SGP/SGP4

EPOCH          = 2026-02-19T21:31:55.704864
MEAN_MOTION    = 15.45669684
ECCENTRICITY   = .0018615
INCLINATION    = 81.1041
RA_OF_ASC_NODE = 24.0478
ARG_OF_PERICENTER = 106.9828
MEAN_ANOMALY   = 253.3458

EPHEMERIS_TYPE = 0
CLASSIFICATION_TYPE = U
NORAD_CAT_ID   = 13819
ELEMENT_SET_NO = 999
REV_AT_EPOCH   = 35519
BSTAR          = .29635E-3
MEAN_MOTION_DOT = .14424E-3
MEAN_MOTION_DDOT = 0

CCSDS_OMM_VERS = 2.0
CREATION_DATE  = 
ORIGINATOR     = 

OBJECT_NAME    = SL-3 R/B
OBJECT_ID      = 1983-075B
CENTER_NAME    = EARTH
REF_FRAME      = TEME
TIME_SYSTEM    = UTC
MEAN_ELEMENT_THEORY = SGP/SGP4

EPOCH          = 2026-02-20T06:03:42.032448
MEAN_MOTION    = 15.37948433
ECCENTRICITY   = .00198551
INCLINATION    = 97.6134
RA_OF_ASC_NODE = 55.1773
ARG_OF_PERICENTER = 294.6986
MEAN_ANOMALY   = 65.2191

EPHEMERIS_TYPE = 0
CLASSIFICATION_TYPE = U
NORAD_CAT_ID   = 14208
ELEMENT_SET_NO = 999
REV_AT_EPOCH   = 32747
BSTAR          = .2556338E-3
MEAN_MOTION_DOT = .9515E-4
MEAN_MOTION_DDOT = 0

CCSDS_OMM_VERS = 2.0
CREATION_DATE  = 
ORIGINATOR     = 

OBJECT_NAME    = COSMOS 1536
OBJECT_ID      = 1984-013A
CENTER_NAME    = EARTH
REF_FRAME      = TEME
TIME_SYSTEM    = UTC
MEAN_ELEMENT_THEORY = SGP/SGP4

EPOCH          = 2026-02-20T04:27:08.100288
MEAN_MOTION    = 15.23570713
ECCENTRICITY   = .00137569
INCLINATION    = 82.5458
RA_OF_ASC_NODE = 125.2457
ARG_OF_PERICENTER = 350.1009
MEAN_ANOMALY   = 9.9955

EPHEMERIS_TYPE = 0
CLASSIFICATION_TYPE = U
NORAD_CAT_ID   = 14699
ELEMENT_SET_NO = 999
REV_AT_EPOCH   = 26995
BSTAR          = .19214817E-3
MEAN_MOTION_DOT = .4637E-4
MEAN_MOTION_DDOT = 0

CCSDS_OMM_VERS = 2.0
CREATION_DATE  = 
ORIGINATOR     = 

OBJECT_NAME    = SL-14 R/B
OBJECT_ID      = 1984-027B
CENTER_NAME    = EARTH
REF_FRAME      = TEME
TIME_SYSTEM    = UTC
MEAN_ELEMENT_THEORY = SGP/SGP4

EPOCH          = 2026-02-20T01:12:54.796608
MEAN_MOTION    = 14.85957244
ECCENTRICITY   = .00188519
INCLINATION    = 82.5384
RA_OF_ASC_NODE = 261.5605
ARG_OF_PERICENTER = 35.9008
MEAN_ANOMALY   = 324.3471

EPHEMERIS_TYPE = 0
CLASSIFICATION_TYPE = U
NORAD_CAT_ID   = 14820
ELEMENT_SET_NO = 999
REV_AT_EPOCH   = 24501
BSTAR          = .40133223E-4
MEAN_MOTION_DOT = .376E-5
MEAN_MOTION_DDOT = 0

CCSDS_OMM_VERS = 2.0
CREATION_DATE  = 
ORIGINATOR     = 

OBJECT_NAME    = SL-8 R/B
OBJECT_ID      = 1985-006B
CENTER_NAME    = EARTH
REF_FRAME      = TEME
TIME_SYSTEM    = UTC
MEAN_ELEMENT_THEORY = SGP/SGP4

EPOCH          = 2026-02-20T03:24:30.928032
MEAN_MOTION    = 14.37773845
ECCENTRICITY   = .00191412
INCLINATION    = 74.0452
RA_OF_ASC_NODE = 293.4393
ARG_OF_PERICENTER = 214.9692
MEAN_ANOMALY   = 300.1880

EPHEMERIS_TYPE = 0
CLASSIFICATION_TYPE = U
NORAD_CAT_ID   = 15483
ELEMENT_SET_NO = 999
REV_AT_EPOCH   = 15150
BSTAR          = .58934479E-4
MEAN_MOTION_DOT = .151E-5
MEAN_MOTION_DDOT = 0

CCSDS_OMM_VERS = 2.0
CREATION_DATE  = 
ORIGINATOR     = 

OBJECT_NAME    = SL-12 R/B(2)
OBJECT_ID      = 1985-042D
CENTER_NAME    = EARTH
REF_FRAME      = TEME
TIME_SYSTEM    = UTC
MEAN_ELEMENT_THEORY = SGP/SGP4

EPOCH          = 2026-02-20T05:56:23.021088
MEAN_MOTION    = 14.21977444
ECCENTRICITY   = .0034203
INCLINATION    = 71.1080
RA_OF_ASC_NODE = 124.5808
ARG_OF_PERICENTER = 156.4122
MEAN_ANOMALY   = 260.0352

EPHEMERIS_TYPE = 0
CLASSIFICATION_TYPE = U
NORAD_CAT_ID   = 15772
ELEMENT_SET_NO = 999
REV_AT_EPOCH   = 11191
BSTAR          = .87379958E-4
MEAN_MOTION_DOT = .147E-5
MEAN_MOTION_DDOT = 0

CCSDS_OMM_VERS = 2.0
CREATION_DATE  = 
ORIGINATOR     = 

OBJECT_NAME    = SL-14 R/B
OBJECT_ID      = 1985-069B
CENTER_NAME    = EARTH
REF_FRAME      = TEME
TIME_SYSTEM    = UTC
MEAN_ELEMENT_THEORY = SGP/SGP4

EPOCH          = 2026-02-20T00:58:40.888992
MEAN_MOTION    = 14.86410660
ECCENTRICITY   = .00172404
INCLINATION    = 82.5251
RA_OF_ASC_NODE = 41.5303
ARG_OF_PERICENTER = 249.4413
MEAN_ANOMALY   = 110.4955

EPHEMERIS_TYPE = 0
CLASSIFICATION_TYPE = U
NORAD_CAT_ID   = 15945
ELEMENT_SET_NO = 999
REV_AT_EPOCH   = 17021
BSTAR          = .52182393E-4
MEAN_MOTION_DOT = .486E-5
MEAN_MOTION_DDOT = 0

CCSDS_OMM_VERS = 2.0
CREATION_DATE  = 
ORIGINATOR     = 

OBJECT_NAME    = SL-16 R/B
OBJECT_ID      = 1985-097B
CENTER_NAME    = EARTH
REF_FRAME      = TEME
TIME_SYSTEM    = UTC
MEAN_ELEMENT_THEORY = SGP/SGP4

EPOCH          = 2026-02-19T20:27:24.094944
MEAN_MOTION    = 14.16594574
ECCENTRICITY   = .000971
INCLINATION    = 71.0029
RA_OF_ASC_NODE = 178.1036
ARG_OF_PERICENTER = 280.0717
MEAN_ANOMALY   = 208.5094

EPHEMERIS_TYPE = 0
CLASSIFICATION_TYPE = U
NORAD_CAT_ID   = 16182
ELEMENT_SET_NO = 999
REV_AT_EPOCH   = 8470
BSTAR          = .62801E-4
MEAN_MOTION_DOT = .77E-6
MEAN_MOTION_DDOT = 0

CCSDS_OMM_VERS = 2.0
CREATION_DATE  = 
ORIGINATOR     = 

OBJECT_NAME    = SL-14 R/B
OBJECT_ID      = 1986-006B
CENTER_NAME    = EARTH
REF_FRAME      = TEME
TIME_SYSTEM    = UTC
MEAN_ELEMENT_THEORY = SGP/SGP4

EPOCH          = 2026-02-20T02:09:13.664736
MEAN_MOTION    = 14.86790455
ECCENTRICITY   = .0075922
INCLINATION    = 82.5247
RA_OF_ASC_NODE = 276.3049
ARG_OF_PERICENTER = 332.1278
MEAN_ANOMALY   = 27.5879

EPHEMERIS_TYPE = 0
CLASSIFICATION_TYPE = U
NORAD_CAT_ID   = 16496
ELEMENT_SET_NO = 999
REV_AT_EPOCH   = 14659
BSTAR          = .54810228E-4
MEAN_MOTION_DOT = .54E-5
MEAN_MOTION_DDOT = 0

CCSDS_OMM_VERS = 2.0
CREATION_DATE  = 
ORIGINATOR     = 

OBJECT_NAME    = COSMOS 1743
OBJECT_ID      = 1986-034A
CENTER_NAME    = EARTH
REF_FRAME      = TEME
TIME_SYSTEM    = UTC
MEAN_ELEMENT_THEORY = SGP/SGP4

EPOCH          = 2026-02-20T04:05:42.653184
MEAN_MOTION    = 15.57218109
ECCENTRICITY   = .00040056
INCLINATION    = 82.5300
RA_OF_ASC_NODE = 92.1991
ARG_OF_PERICENTER = 18.3308
MEAN_ANOMALY   = 341.8090

EPHEMERIS_TYPE = 0
CLASSIFICATION_TYPE = U
NORAD_CAT_ID   = 16719
ELEMENT_SET_NO = 999
REV_AT_EPOCH   = 17752
BSTAR          = .39199557E-3
MEAN_MOTION_DOT = .2861E-3
MEAN_MOTION_DDOT = 0

