SL-3 R/B                
1 13403U 82079B   26051.20940529  .00005411  00000+0  21723-3 0  9990
2 13403  81.1454 213.7119 0024340 224.2054 135.7235 15.24510578375034
SL-14 R/B               
1 13553U 82092B   26050.81769621  .00000493  00000+0  52624-4 0  9999
2 13553  82.5711 158.1111 0020361   4.9673 112.1018 14.86646260326279
SL-3 R/B                
1 13819U 83010B   26050.89717251  .00014424  00000+0  29635-3 0  9999
2 13819  81.1041  24.0478 0018615 106.9828 253.3458 15.45669684355196
SL-3 R/B                
1 14208U 83075B   26051.25256982  .00009515  00000+0  25563-3 0  9994
2 14208  97.6134  55.1773 0019855 294.6986  65.2191 15.37948433327471
COSMOS 1536             
1 14699U 84013A   26051.18551042  .00004637  00000+0  19215-3 0  9995
2 14699  82.5458 125.2457 0013756 350.1009   9.9955 15.23570713269951
SL-14 R/B               
1 14820U 84027B   26051.05063422  .00000376  00000+0  40133-4 0  9992
2 14820  82.5384 261.5605 0018851  35.9008 324.3471 14.85957244245015
SL-8 R/B                
1 15483U 85006B   26051.14202463  .00000151  00000+0  58934-4 0  9995
2 15483  74.0452 293.4393 0019141 214.9692 300.1880 14.37773845151508
SL-12 R/B(2)            
1 15772U 85042D   26051.24748867  .00000147  00000+0  87380-4 0  9992
2 15772  71.1080 124.5808 0034203 156.4122 260.0352 14.21977444111916
SL-14 R/B               
1 15945U 85069B   26051.04075103  .00000486  00000+0  52182-4 0  9995
2 15945  82.5251  41.5303 0017240 249.4413 110.4955 14.86410660170218
SL-16 R/B               
1 16182U 85097B   26050.85236221  .00000077  00000+0  62801-4 0  9993
2 16182  71.0029 178.1036 0009710 280.0717 208.5094 14.16594574 84700
SL-14 R/B               
1 16496U 86006B   26051.08974149  .00000540  00000+0  54810-4 0  9992
2 16496  82.5247 276.3049 0075922 332.1278  27.5879 14.86790455146590
COSMOS 1743             
1 16719U 86034A   26051.17063256  .00028610  00000+0  39200-3 0  9992
2 16719  82.5300  92.1991 0004005  18.3308 341.8090 15.57218109177523
